{
    "regions": [{
        "id": 110000,
        "name": "北京",
        "pinyin": "BeiJing",
        "hot": true,
        "municipality": true
    }, {
        "id": 120000,
        "name": "天津",
        "pinyin": "TianJin",
        "hot": true,
        "municipality": true
    }, {
        "id": 130000,
        "name": "河北",
        "regions": [{
            "id": 130100,
            "name": "石家庄市",
            "pinyin": "ShiJiaZhuangShi"
        }, {
            "id": 130200,
            "name": "唐山市",
            "pinyin": "TangShanShi"
        }, {
            "id": 130300,
            "name": "秦皇岛市",
            "pinyin": "QinHuangDaoShi"
        }, {
            "id": 130400,
            "name": "邯郸市",
            "pinyin": "HanDanShi"
        }, {
            "id": 130500,
            "name": "邢台市",
            "pinyin": "XingTaiShi"
        }, {
            "id": 130900,
            "name": "沧州市",
            "pinyin": "CangZhouShi"
        }, {
            "id": 131000,
            "name": "廊坊市",
            "pinyin": "LangFangShi"
        }, {
            "id": 131100,
            "name": "衡水市",
            "pinyin": "HengShuiShi"
        }],
        "pinyin": "HeBei"
    }, 
    {
        "id": 310000,
        "name": "上海",
        "regions": [{
            "id": 310100,
            "name": "上海市",
            "regions": [ {
                "id": 310230,
                "name": "崇明县"
            }]
        }],
        "pinyin": "ShangHai",
        "hot": true,
        "municipality": true
    }, {
        "id": 320000,
        "name": "江苏",
        "regions": [{
            "id": 320100,
            "name": "南京市",
            "pinyin": "NanJingShi",
            "hot": true
        }, {
            "id": 320200,
            "name": "无锡市",
            "pinyin": "WuXiShi"
        }, {
            "id": 320300,
            "name": "徐州市",
            "pinyin": "XuZhouShi"
        }, {
            "id": 320400,
            "name": "常州市",
            "pinyin": "ChangZhouShi"
        }, {
            "id": 320500,
            "name": "苏州市",
            "pinyin": "SuZhouShi",
            "hot": true
        }, {
            "id": 320600,
            "name": "南通市",
            "pinyin": "NanTongShi"
        }, {
            "id": 320700,
            "name": "连云港市",
            "pinyin": "LianYunGangShi"
        }, {
            "id": 320800,
            "name": "淮安市",
            "pinyin": "HuaiAnShi"
        }, {
            "id": 320900,
            "name": "盐城市",
            "pinyin": "YanChengShi"
        }, {
            "id": 321000,
            "name": "扬州市",
            "pinyin": "YangZhouShi"
        }, {
            "id": 321100,
            "name": "镇江市",
            "pinyin": "ZhenJiangShi"
        }, {
            "id": 321200,
            "name": "泰州市",
            "pinyin": "TaiZhouShi"
        }, {
            "id": 321300,
            "name": "宿迁市",
            "pinyin": "SuQianShi"
        }],
        "pinyin": "JiangSu"
    }, {
        "id": 330000,
        "name": "浙江",
        "regions": [{
            "id": 330100,
            "name": "杭州市",
            "pinyin": "HangZhouShi",
            "hot": true
        }, {
            "id": 330200,
            "name": "宁波市",
            "pinyin": "NingBoShi"
        }, {
            "id": 330300,
            "name": "温州市",
            "pinyin": "WenZhouShi"
        }, {
            "id": 330400,
            "name": "嘉兴市",
            "pinyin": "JiaXingShi"
        }, {
            "id": 330500,
            "name": "湖州市",
            "pinyin": "HuZhouShi"
        }, {
            "id": 330600,
            "name": "绍兴市",
            "pinyin": "ShaoXingShi"
        }, {
            "id": 330700,
            "name": "金华市",
            "pinyin": "JinHuaShi"
        }, {
            "id": 330800,
            "name": "衢州市",
            "pinyin": "QuZhouShi"
        }, {
            "id": 330900,
            "name": "舟山市",
            "pinyin": "ZhouShanShi"
        }, {
            "id": 331000,
            "name": "台州市",
            "pinyin": "TaiZhouShi"
        }, {
            "id": 331100,
            "name": "丽水市",
            "pinyin": "LiShuiShi"
        }],
        "pinyin": "ZheJiang"
    }, {
        "id": 340000,
        "name": "安徽",
        "regions": [{
            "id": 340100,
            "name": "合肥市",
            "pinyin": "HeFeiShi",
            "hot": true
        }, {
            "id": 340200,
            "name": "芜湖市",         
            "pinyin": "WuHuShi"
        }, {
            "id": 340300,
            "name": "蚌埠市",      
            "pinyin": "BangBuShi"
        }, {
            "id": 340400,
            "name": "淮南市",
            "pinyin": "HuaiNanShi"
        }, {
            "id": 340500,
            "name": "马鞍山市",
            "pinyin": "MaAnShanShi"
        }, {
            "id": 340600,
            "name": "淮北市",
            "pinyin": "HuaiBeiShi"
        }, {
            "id": 340700,
            "name": "铜陵市",
            "pinyin": "TongLingShi"
        }, {
            "id": 340800,
            "name": "安庆市",
            "pinyin": "AnQingShi"
        }, {
            "id": 341000,
            "name": "黄山市",
            "pinyin": "HuangShanShi"
        }, {
            "id": 341100,
            "name": "滁州市",
            "pinyin": "ChuZhouShi"
        }, {
            "id": 341200,
            "name": "阜阳市",
            "pinyin": "FuYangShi"
        }, {
            "id": 341300,
            "name": "宿州市",
            "pinyin": "SuZhouShi"
        }, {
            "id": 341400,
            "name": "巢湖市",
            "pinyin": "ChaoHuShi"
        }, {
            "id": 341500,
            "name": "六安市",
            "pinyin": "LiuAnShi"
        }, {
            "id": 341600,
            "name": "亳州市",
            "pinyin": "BoZhouShi"
        }, {
            "id": 341700,
            "name": "池州市",
            "pinyin": "ChiZhouShi"
        }, {
            "id": 341800,
            "name": "宣城市",
            "pinyin": "XuanChengShi"
        }],
        "pinyin": "AnHui"
    }, 
    {
        "id": 440000,
        "name": "广东",
        "regions": [{
            "id": 440100,
            "name": "广州市",
            "pinyin": "GuangZhouShi",
            "hot": true
        }, {
            "id": 440200,
            "name": "韶关市",
            "pinyin": "ShaoGuanShi"
        }, {
            "id": 440300,
            "name": "深圳市",
            "pinyin": "ShenChouShi",
            "hot": true
        }, {
            "id": 440400,
            "name": "珠海市",
            "pinyin": "ZhuHaiShi"
        }, {
            "id": 440500,
            "name": "汕头市",
            "pinyin": "ShanTouShi"
        }, {
            "id": 440600,
            "name": "佛山市",
            "pinyin": "FuShanShi"
        }, {
            "id": 440700,
            "name": "江门市",
            "pinyin": "JiangMenShi"
        }, {
            "id": 440800,
            "name": "湛江市",
            "pinyin": "ZhanJiangShi"
        }, {
            "id": 440900,
            "name": "茂名市",
            "pinyin": "MaoMingShi"
        }, {
            "id": 441200,
            "name": "肇庆市",
            "pinyin": "ZhaoQingShi"
        }, {
            "id": 441300,
            "name": "惠州市",
            "pinyin": "HuiZhouShi"
        }, {
            "id": 441400,
            "name": "梅州市",
            "pinyin": "MeiZhouShi"
        }, {
            "id": 441500,
            "name": "汕尾市",
            "pinyin": "ShanWeiShi"
        }, {
            "id": 441600,
            "name": "河源市",
            "pinyin": "HeYuanShi"
        }, {
            "id": 441700,
            "name": "阳江市",
            "pinyin": "YangJiangShi"
        }, {
            "id": 441800,
            "name": "清远市",
            "pinyin": "QingYuanShi"
        }, {
            "id": 441900,
            "name": "东莞市",
            "pinyin": "DongGuanShi"
        }, {
            "id": 442000,
            "name": "中山市",
            "pinyin": "ZhongShanShi"
        }, {
            "id": 445100,
            "name": "潮州市",
            "pinyin": "ChaoZhouShi"
        }, {
            "id": 445300,
            "name": "云浮市",
            "pinyin": "YunFuShi"
        }],
        "pinyin": "GuangDong"
    }]
}
